{
    "links": {
        "self": "http://www.neowsapp.com/rest/v1/neo/54053796?api_key=iIulBulltgU6a56xZRHN4H3l9WmuAYTsLGpBGhQ2"
    },
    "id": "54053796",
    "neo_reference_id": "54053796",
    "name": "(2020 QE7)",
    "designation": "2020 QE7",
    "nasa_jpl_url": "http://ssd.jpl.nasa.gov/sbdb.cgi?sstr=54053796",
    "absolute_magnitude_h": 22.821,
    "estimated_diameter": {
        "kilometers": {
            "estimated_diameter_min": 0.072502833,
            "estimated_diameter_max": 0.1621212631
        },
        "meters": {
            "estimated_diameter_min": 72.5028329893,
            "estimated_diameter_max": 162.1212631254
        },
        "miles": {
            "estimated_diameter_min": 0.0450511578,
            "estimated_diameter_max": 0.1007374514
        },
        "feet": {
            "estimated_diameter_min": 237.8701945847,
            "estimated_diameter_max": 531.8939249124
        }
    },
    "is_potentially_hazardous_asteroid": false,
    "close_approach_data": [
        {
            "close_approach_date": "2020-08-17",
            "close_approach_date_full": "2020-Aug-17 09:45",
            "epoch_date_close_approach": 1597657500000,
            "relative_velocity": {
                "kilometers_per_second": "22.0867546132",
                "kilometers_per_hour": "79512.3166074977",
                "miles_per_hour": "49405.8613942532"
            },
            "miss_distance": {
                "astronomical": "0.1040822751",
                "lunar": "40.4880050139",
                "kilometers": "15570486.659714037",
                "miles": "9675051.7722342306"
            },
            "orbiting_body": "Earth"
        }
    ],
    "orbital_data": {
        "orbit_id": "1",
        "orbit_determination_date": "2020-09-10 13:12:03",
        "first_observation_date": "2020-08-28",
        "last_observation_date": "2020-08-29",
        "data_arc_in_days": 1,
        "observations_used": 13,
        "orbit_uncertainty": "9",
        "minimum_orbit_intersection": ".0121159",
        "jupiter_tisserand_invariant": "3.265",
        "epoch_osculation": "2459090.5",
        "eccentricity": ".7523357110426888",
        "semi_major_axis": "2.127042057592657",
        "inclination": "13.58648317575271",
        "ascending_node_longitude": "316.5253996543237",
        "orbital_period": "1133.085136641676",
        "perihelion_distance": ".5267923587759816",
        "perihelion_argument": "277.9401631739354",
        "aphelion_distance": "3.727291756409333",
        "perihelion_time": "2459033.232558986880",
        "mean_anomaly": "18.19481881637535",
        "mean_motion": ".3177166378397614",
        "equinox": "J2000",
        "orbit_class": {
            "orbit_class_type": "APO",
            "orbit_class_description": "Near-Earth asteroid orbits which cross the Earth’s orbit similar to that of 1862 Apollo",
            "orbit_class_range": "a (semi-major axis) > 1.0 AU; q (perihelion) < 1.017 AU"
        }
    },
    "is_sentry_object": false
}